start=new Date('2023-03-19T00:00:00.000Z').valueOf();
sats=[{"LAUNCH_DATE":"2021-05-09","RCS_SIZE":"LARGE","BSTAR":"0.00153480000000","EPHEMERIS_TYPE":"0","ELEMENT_SET_NO":"999","REF_FRAME":"TEME","PERIOD":"95.589","PERIAPSIS":"546.044","TIME_SYSTEM":"UTC","APOAPSIS":"548.070","OBJECT_NAME":"STARLINK-2680","MEAN_MOTION_DOT":"0.00022685","REV_AT_EPOCH":"10330","NORAD_CAT_ID":"48432","TLE_LINE2":"2 48432  53.0555 345.8464 0001463 122.6324 237.4806 15.06450995103305","EPOCH":"2023-03-18T21:23:09.409632","FILE":"3864479","CLASSIFICATION_TYPE":"U","ARG_OF_PERICENTER":"122.6324","RA_OF_ASC_NODE":"345.8464","MEAN_MOTION":"15.06450995","INCLINATION":"53.0555","MEAN_MOTION_DDOT":"0.0000000000000","DECAY_DATE":null,"OBJECT_TYPE":"PAYLOAD","SITE":"AFETR","OBJECT_ID":"2021-040E","ECCENTRICITY":"0.00014630","SEMIMAJOR_AXIS":"6925.192","GP_ID":"228402338","COUNTRY_CODE":"US","CENTER_NAME":"EARTH","MEAN_ANOMALY":"237.4806","TLE_LINE1":"1 48432U 21040E   23077.89108113  .00022685  00000-0  15348-2 0  9994","MEAN_ELEMENT_THEORY":"SGP4"},{"MEAN_MOTION_DDOT":"0.0000000000000","DECAY_DATE":null,"INCLINATION":"53.0560","MEAN_MOTION":"15.06437261","RA_OF_ASC_NODE":"350.6747","ARG_OF_PERICENTER":"97.7937","CLASSIFICATION_TYPE":"U","EPOCH":"2023-03-18T21:41:03.038496","FILE":"3864479","MEAN_ELEMENT_THEORY":"SGP4","MEAN_ANOMALY":"262.3229","TLE_LINE1":"1 48433U 21040F   23077.90350739  .00025571  00000-0  17276-2 0  9999","SEMIMAJOR_AXIS":"6925.234","GP_ID":"228403082","COUNTRY_CODE":"US","CENTER_NAME":"EARTH","ECCENTRICITY":"0.00015580","OBJECT_ID":"2021-040F","OBJECT_TYPE":"PAYLOAD","SITE":"AFETR","REF_FRAME":"TEME","PERIOD":"95.590","EPHEMERIS_TYPE":"0","BSTAR":"0.00172760000000","ELEMENT_SET_NO":"999","RCS_SIZE":"LARGE","LAUNCH_DATE":"2021-05-09","TLE_LINE2":"2 48433  53.0560 350.6747 0001558  97.7937 262.3229 15.06437261103236","REV_AT_EPOCH":"10323","NORAD_CAT_ID":"48433","OBJECT_NAME":"STARLINK-2699","APOAPSIS":"548.178","MEAN_MOTION_DOT":"0.00025571","TIME_SYSTEM":"UTC","PERIAPSIS":"546.020"},{"REF_FRAME":"TEME","PERIOD":"95.589","BSTAR":"0.00208370000000","EPHEMERIS_TYPE":"0","ELEMENT_SET_NO":"999","RCS_SIZE":"LARGE","LAUNCH_DATE":"2021-05-09","TLE_LINE2":"2 48434  53.0544 355.7621 0001232 118.1706 241.9407 15.06441820103177","NORAD_CAT_ID":"48434","REV_AT_EPOCH":"10317","OBJECT_NAME":"STARLINK-2692","APOAPSIS":"547.939","MEAN_MOTION_DOT":"0.00030927","TIME_SYSTEM":"UTC","PERIAPSIS":"546.232","MEAN_MOTION_DDOT":"0.0000000000000","DECAY_DATE":null,"INCLINATION":"53.0544","MEAN_MOTION":"15.06441820","RA_OF_ASC_NODE":"355.7621","ARG_OF_PERICENTER":"118.1706","CLASSIFICATION_TYPE":"U","EPOCH":"2023-03-18T22:25:31.463616","FILE":"3864479","MEAN_ELEMENT_THEORY":"SGP4","MEAN_ANOMALY":"241.9407","TLE_LINE1":"1 48434U 21040G   23077.93439194  .00030927  00000-0  20837-2 0  9994","SEMIMAJOR_AXIS":"6925.220","GP_ID":"228403337","COUNTRY_CODE":"US","CENTER_NAME":"EARTH","ECCENTRICITY":"0.00012320","OBJECT_ID":"2021-040G","OBJECT_TYPE":"PAYLOAD","SITE":"AFETR"},{"CLASSIFICATION_TYPE":"U","FILE":"3864479","EPOCH":"2023-03-18T22:34:44.066784","RA_OF_ASC_NODE":"5.2305","ARG_OF_PERICENTER":"94.8161","MEAN_MOTION":"15.06422242","MEAN_MOTION_DDOT":"0.0000000000000","DECAY_DATE":null,"INCLINATION":"53.0545","OBJECT_ID":"2021-040H","OBJECT_TYPE":"PAYLOAD","SITE":"AFETR","ECCENTRICITY":"0.00010180","TLE_LINE1":"1 48435U 21040H   23077.94078781  .00031829  00000-0  21448-2 0  9998","MEAN_ANOMALY":"265.2944","SEMIMAJOR_AXIS":"6925.280","GP_ID":"228402090","COUNTRY_CODE":"US","CENTER_NAME":"EARTH","MEAN_ELEMENT_THEORY":"SGP4","LAUNCH_DATE":"2021-05-09","RCS_SIZE":"LARGE","REF_FRAME":"TEME","PERIOD":"95.591","BSTAR":"0.00214480000000","EPHEMERIS_TYPE":"0","ELEMENT_SET_NO":"999","TIME_SYSTEM":"UTC","PERIAPSIS":"546.440","APOAPSIS":"547.850","OBJECT_NAME":"STARLINK-2633","MEAN_MOTION_DOT":"0.00031829","TLE_LINE2":"2 48435  53.0545   5.2305 0001018  94.8161 265.2944 15.06422242103039","REV_AT_EPOCH":"10303","NORAD_CAT_ID":"48435"},{"MEAN_MOTION_DDOT":"0.0000000000000","DECAY_DATE":null,"INCLINATION":"53.0543","MEAN_MOTION":"15.06411167","RA_OF_ASC_NODE":"22.0560","ARG_OF_PERICENTER":"80.6392","CLASSIFICATION_TYPE":"U","EPOCH":"2023-03-18T12:46:14.951136","FILE":"3864479","MEAN_ELEMENT_THEORY":"SGP4","TLE_LINE1":"1 48436U 21040J   23077.53211749  .00031178  00000-0  21021-2 0  9991","MEAN_ANOMALY":"279.4738","SEMIMAJOR_AXIS":"6925.314","CENTER_NAME":"EARTH","GP_ID":"228401838","COUNTRY_CODE":"US","ECCENTRICITY":"0.00012440","OBJECT_ID":"2021-040J","OBJECT_TYPE":"PAYLOAD","SITE":"AFETR","REF_FRAME":"TEME","PERIOD":"95.591","BSTAR":"0.00210210000000","EPHEMERIS_TYPE":"0","ELEMENT_SET_NO":"999","RCS_SIZE":"LARGE","LAUNCH_DATE":"2021-05-09","TLE_LINE2":"2 48436  53.0543  22.0560 0001244  80.6392 279.4738 15.06411167102769","NORAD_CAT_ID":"48436","REV_AT_EPOCH":"10276","APOAPSIS":"548.041","OBJECT_NAME":"STARLINK-2639","MEAN_MOTION_DOT":"0.00031178","TIME_SYSTEM":"UTC","PERIAPSIS":"546.318"},{"MEAN_ELEMENT_THEORY":"SGP4","MEAN_ANOMALY":"268.7681","TLE_LINE1":"1 48437U 21040K   23077.58279416  .00028379  00000-0  19158-2 0  9999","SEMIMAJOR_AXIS":"6925.313","GP_ID":"228402582","CENTER_NAME":"EARTH","COUNTRY_CODE":"US","ECCENTRICITY":"0.00012330","OBJECT_ID":"2021-040K","OBJECT_TYPE":"PAYLOAD","SITE":"AFETR","DECAY_DATE":null,"MEAN_MOTION_DDOT":"0.0000000000000","INCLINATION":"53.0535","MEAN_MOTION":"15.06411538","RA_OF_ASC_NODE":"31.8276","ARG_OF_PERICENTER":"91.3449","CLASSIFICATION_TYPE":"U","FILE":"3864479","EPOCH":"2023-03-18T13:59:13.415424","TLE_LINE2":"2 48437  53.0535  31.8276 0001233  91.3449 268.7681 15.06411538102639","REV_AT_EPOCH":"10263","NORAD_CAT_ID":"48437","APOAPSIS":"548.032","OBJECT_NAME":"STARLINK-2642","MEAN_MOTION_DOT":"0.00028379","TIME_SYSTEM":"UTC","PERIAPSIS":"546.324","REF_FRAME":"TEME","PERIOD":"95.591","BSTAR":"0.00191580000000","EPHEMERIS_TYPE":"0","ELEMENT_SET_NO":"999","RCS_SIZE":"LARGE","LAUNCH_DATE":"2021-05-09"},{"LAUNCH_DATE":"2021-05-09","RCS_SIZE":"LARGE","REF_FRAME":"TEME","PERIOD":"95.592","EPHEMERIS_TYPE":"0","BSTAR":"0.00208190000000","ELEMENT_SET_NO":"999","TIME_SYSTEM":"UTC","PERIAPSIS":"546.247","OBJECT_NAME":"STARLINK-2640","APOAPSIS":"548.150","MEAN_MOTION_DOT":"0.00030869","TLE_LINE2":"2 48438  53.0559  23.2650 0001374 105.2357 254.8784 15.06404876102723","NORAD_CAT_ID":"48438","REV_AT_EPOCH":"10272","CLASSIFICATION_TYPE":"U","FILE":"3864479","EPOCH":"2023-03-18T06:18:47.322144","RA_OF_ASC_NODE":"23.2650","ARG_OF_PERICENTER":"105.2357","MEAN_MOTION":"15.06404876","MEAN_MOTION_DDOT":"0.0000000000000","DECAY_DATE":null,"INCLINATION":"53.0559","OBJECT_ID":"2021-040L","OBJECT_TYPE":"PAYLOAD","SITE":"AFETR","ECCENTRICITY":"0.00013740","TLE_LINE1":"1 48438U 21040L   23077.26304771  .00030869  00000-0  20819-2 0  9991","MEAN_ANOMALY":"254.8784","SEMIMAJOR_AXIS":"6925.334","GP_ID":"228402837","CENTER_NAME":"EARTH","COUNTRY_CODE":"US","MEAN_ELEMENT_THEORY":"SGP4"},{"CLASSIFICATION_TYPE":"U","FILE":"3864479","EPOCH":"2023-03-18T01:26:51.209088","RA_OF_ASC_NODE":"24.1734","ARG_OF_PERICENTER":"98.1916","MEAN_MOTION":"15.06392849","DECAY_DATE":null,"MEAN_MOTION_DDOT":"0.0000000000000","INCLINATION":"53.0565","OBJECT_ID":"2021-040M","OBJECT_TYPE":"PAYLOAD","SITE":"AFETR","ECCENTRICITY":"0.00018760","MEAN_ANOMALY":"261.9286","TLE_LINE1":"1 48439U 21040M   23077.06031492  .00011491  00000-0  78924-3 0  9998","SEMIMAJOR_AXIS":"6925.370","GP_ID":"228401590","CENTER_NAME":"EARTH","COUNTRY_CODE":"US","MEAN_ELEMENT_THEORY":"SGP4","LAUNCH_DATE":"2021-05-09","RCS_SIZE":"LARGE","REF_FRAME":"TEME","PERIOD":"95.593","EPHEMERIS_TYPE":"0","BSTAR":"0.00078924000000","ELEMENT_SET_NO":"999","TIME_SYSTEM":"UTC","PERIAPSIS":"545.936","OBJECT_NAME":"STARLINK-2583","APOAPSIS":"548.535","MEAN_MOTION_DOT":"0.00011491","TLE_LINE2":"2 48439  53.0565  24.1734 0001876  98.1916 261.9286 15.06392849102690","REV_AT_EPOCH":"10269","NORAD_CAT_ID":"48439"},{"RCS_SIZE":"LARGE","LAUNCH_DATE":"2021-05-09","PERIOD":"95.593","REF_FRAME":"TEME","ELEMENT_SET_NO":"999","EPHEMERIS_TYPE":"0","BSTAR":"0.00221070000000","MEAN_MOTION_DOT":"0.00032793","APOAPSIS":"548.320","OBJECT_NAME":"STARLINK-2682","TIME_SYSTEM":"UTC","PERIAPSIS":"546.160","TLE_LINE2":"2 48440  53.0561  23.2972 0001559  89.4260 270.6908 15.06391383102729","NORAD_CAT_ID":"48440","REV_AT_EPOCH":"10272","RA_OF_ASC_NODE":"23.2972","ARG_OF_PERICENTER":"89.4260","CLASSIFICATION_TYPE":"U","FILE":"3864479","EPOCH":"2023-03-18T06:08:09.996000","MEAN_MOTION_DDOT":"0.0000000000000","DECAY_DATE":null,"INCLINATION":"53.0561","MEAN_MOTION":"15.06391383","ECCENTRICITY":"0.00015590","OBJECT_ID":"2021-040N","SITE":"AFETR","OBJECT_TYPE":"PAYLOAD","MEAN_ELEMENT_THEORY":"SGP4","TLE_LINE1":"1 48440U 21040N   23077.25567125  .00032793  00000-0  22107-2 0  9997","MEAN_ANOMALY":"270.6908","COUNTRY_CODE":"US","GP_ID":"228402339","CENTER_NAME":"EARTH","SEMIMAJOR_AXIS":"6925.375"},{"RCS_SIZE":"LARGE","LAUNCH_DATE":"2021-05-09","REF_FRAME":"TEME","PERIOD":"95.592","BSTAR":"0.00220340000000","EPHEMERIS_TYPE":"0","ELEMENT_SET_NO":"999","APOAPSIS":"548.246","OBJECT_NAME":"STARLINK-2702","MEAN_MOTION_DOT":"0.00032688","TIME_SYSTEM":"UTC","PERIAPSIS":"546.202","TLE_LINE2":"2 48441  53.0560  23.3140 0001476  88.0741 272.0417 15.06396674102723","REV_AT_EPOCH":"10272","NORAD_CAT_ID":"48441","RA_OF_ASC_NODE":"23.3140","ARG_OF_PERICENTER":"88.0741","CLASSIFICATION_TYPE":"U","EPOCH":"2023-03-18T06:02:51.984384","FILE":"3864479","DECAY_DATE":null,"MEAN_MOTION_DDOT":"0.0000000000000","INCLINATION":"53.0560","MEAN_MOTION":"15.06396674","ECCENTRICITY":"0.00014760","OBJECT_ID":"2021-040P","OBJECT_TYPE":"PAYLOAD","SITE":"AFETR","MEAN_ELEMENT_THEORY":"SGP4","MEAN_ANOMALY":"272.0417","TLE_LINE1":"1 48441U 21040P   23077.25199056  .00032688  00000-0  22034-2 0  9994","SEMIMAJOR_AXIS":"6925.359","COUNTRY_CODE":"US","GP_ID":"228403083","CENTER_NAME":"EARTH"}];
